NORAD_CAT_ID,OBJECT_NAME,OBJECT_TYPE,EPOCH,MEAN_MOTION,ECCENTRICITY,INCLINATION,RA_OF_ASC_NODE,ARG_OF_PERICENTER,MEAN_ANOMALY,BSTAR,MEAN_MOTION_DOT,MEAN_MOTION_DDOT,TLE_LINE0,TLE_LINE1,TLE_LINE2,SEMIMAJOR_AXIS,PERIOD,APOGEE,PERIGEE,DECAYED
55773.0,STARLINK-5833,PAYLOAD,2024-05-13 03:50:44,14.98331234,0.0002418,69.9999,102.4781,264.5527,95.5356,7.9721e-05,8.58e-06,0.0,0 STARLINK-5833,1 55773U 23028AJ  24134.16023181  .00000858  00000-0  79721-4 0  9999,2 55773  69.9999 102.4781 0002418 264.5527  95.5356 14.98331234 66844,6950.189,96.107,573.735,570.374,0.0
55773.0,STARLINK-5833,PAYLOAD,2024-05-13 07:03:02,14.98303162,0.0002527,69.9996,102.1409,261.13,98.9573,-0.00022994,-2.833e-05,0.0,0 STARLINK-5833,1 55773U 23028AJ  24134.29377672 -.00002833  00000-0 -22994-3 0  9996,2 55773  69.9996 102.1409 0002527 261.1300  98.9573 14.98303162 66867,6950.276,96.109,573.897,570.385,0.0
55773.0,STARLINK-5833,PAYLOAD,2024-05-14 03:52:44,14.98338845,0.0002857,69.9992,99.9523,270.8604,89.2228,-2.2242e-05,-3.58e-06,0.0,0 STARLINK-5833,1 55773U 23028AJ  24135.16162982 -.00000358  00000-0 -22242-4 0  9996,2 55773  69.9992  99.9523 0002857 270.8604  89.2228 14.98338845 66993,6950.166,96.106,574.016,570.045,0.0
55773.0,STARLINK-5833,PAYLOAD,2024-05-14 07:05:00,14.98339241,0.0002628,69.9996,99.6153,262.8829,97.2032,-4.1477e-06,-1.42e-06,0.0,0 STARLINK-5833,1 55773U 23028AJ  24135.29514860 -.00000142  00000-0 -41477-5 0  9999,2 55773  69.9996  99.6153 0002628 262.8829  97.2032 14.98339241 67016,6950.164,96.106,573.856,570.203,0.0
55773.0,STARLINK-5833,PAYLOAD,2024-05-14 15:05:41,14.98307256,0.0002628,69.9999,98.7736,278.714,81.3722,0.00069606,8.217e-05,0.0,0 STARLINK-5833,1 55773U 23028AJ  24135.62895692  .00008217  00000-0  69606-3 0  9992,2 55773  69.9999  98.7736 0002628 278.7140  81.3722 14.98307256 67064,6950.263,96.108,573.955,570.302,0.0
55773.0,STARLINK-5833,PAYLOAD,2024-05-14 23:06:21,14.98331743,0.0003242,69.9996,97.9347,275.3611,84.7178,0.00046597,5.472e-05,0.0,0 STARLINK-5833,1 55773U 23028AJ  24135.96274648  .00005472  00000-0  46597-3 0  9995,2 55773  69.9996  97.9347 0003242 275.3611  84.7178 14.98331743 67115,6950.188,96.107,574.306,569.799,0.0
55773.0,STARLINK-5833,PAYLOAD,2024-05-15 03:54:43,14.98402361,0.0003676,69.9988,97.4278,270.9683,89.1055,-0.00050718,-6.151e-05,0.0,0 STARLINK-5833,1 55773U 23028AJ  24136.16300766 -.00006151  00000-0 -50718-3 0  9996,2 55773  69.9988  97.4278 0003676 270.9683  89.1055 14.98402361 67146,6949.969,96.102,574.389,569.279,0.0
55773.0,STARLINK-5833,PAYLOAD,2024-05-15 07:07:00,14.98345302,0.0003118,69.999,97.0915,276.1023,83.9781,0.00055035,6.482e-05,0.0,0 STARLINK-5833,1 55773U 23028AJ  24136.29653336  .00006482  00000-0  55035-3 0  9996,2 55773  69.9990  97.0915 0003118 276.1023  83.9781 14.98345302 67161,6950.146,96.106,574.178,569.844,0.0
55773.0,STARLINK-5833,PAYLOAD,2024-05-15 21:32:14,14.98342101,0.0003091,69.9989,95.5765,272.6854,87.3951,-8.7337e-05,-1.135e-05,0.0,0 STARLINK-5833,1 55773U 23028AJ  24136.89738595 -.00001135  00000-0 -87337-4 0  9996,2 55773  69.9989  95.5765 0003091 272.6854  87.3951 14.98342101 67259,6950.155,96.106,574.169,569.872,0.0
55773.0,STARLINK-5833,PAYLOAD,2024-05-16 07:09:01,14.98344766,0.0003021,69.9991,94.5667,269.7499,90.3314,-5.3781e-05,-7.35e-06,0.0,0 STARLINK-5833,1 55773U 23028AJ  24137.29793938 -.00000735  00000-0 -53781-4 0  9994,2 55773  69.9991  94.5667 0003021 269.7499  90.3314 14.98344766 67310,6950.147,96.106,574.112,569.913,0.0
55773.0,STARLINK-5833,PAYLOAD,2024-05-17 03:58:46,14.9834787,0.0002882,69.9997,92.3801,267.1763,92.9066,-0.00019122,-2.375e-05,0.0,0 STARLINK-5833,1 55773U 23028AJ  24138.16581259 -.00002375  00000-0 -19122-3 0  9994,2 55773  69.9997  92.3801 0002882 267.1763  92.9066 14.98347870 67447,6950.138,96.106,574.006,570.0,0.0
55773.0,STARLINK-5833,PAYLOAD,2024-05-17 13:35:34,14.98344811,0.0003024,70.0,91.367,279.1654,80.9163,-0.00026084,-3.205e-05,0.0,0 STARLINK-5833,1 55773U 23028AJ  24138.56637290 -.00003205  00000-0 -26084-3 0  9993,2 55773  70.0000  91.3670 0003024 279.1654  80.9163 14.98344811 67503,6950.147,96.106,574.114,569.91,0.0
55773.0,STARLINK-5833,PAYLOAD,2024-05-17 20:00:07,14.98301783,0.0002586,70.0033,90.6959,273.3108,86.7755,0.00027638,3.204e-05,0.0,0 STARLINK-5833,1 55773U 23028AJ  24138.83342441  .00003204  00000-0  27638-3 0  9997,2 55773  70.0033  90.6959 0002586 273.3108  86.7755 14.98301783 67549,6950.28,96.109,573.942,570.348,0.0
55773.0,STARLINK-5833,PAYLOAD,2024-05-17 21:36:15,14.98317601,0.0002817,70.0032,90.5286,273.5785,86.5052,3.5203e-06,-5.1e-07,0.0,0 STARLINK-5833,1 55773U 23028AJ  24138.90018442 -.00000051  00000-0  35203-5 0  9993,2 55773  70.0032  90.5286 0002817 273.5785  86.5052 14.98317601 67555,6950.231,96.108,574.054,570.138,0.0
55773.0,STARLINK-5833,PAYLOAD,2024-05-18 04:00:48,14.98323209,0.0002513,70.0004,89.8548,269.3869,90.7002,-7.1196e-05,-9.42e-06,0.0,0 STARLINK-5833,1 55773U 23028AJ  24139.16722426 -.00000942  00000-0 -71196-4 0  9996,2 55773  70.0004  89.8548 0002513 269.3869  90.7002 14.98323209 67592,6950.214,96.107,573.825,570.332,0.0
55773.0,STARLINK-5833,PAYLOAD,2024-05-18 13:37:36,14.98326585,0.000246,70.0008,88.8447,269.4653,90.6224,-1.3755e-05,-2.57e-06,0.0,0 STARLINK-5833,1 55773U 23028AJ  24139.56778154 -.00000257  00000-0 -13755-4 0  9995,2 55773  70.0008  88.8447 0002460 269.4653  90.6224 14.98326585 67658,6950.203,96.107,573.778,570.359,0.0
55773.0,STARLINK-5833,PAYLOAD,2024-05-18 21:38:17,14.98328463,0.0002102,70.0017,88.0043,264.919,95.1729,-0.00014739,-1.851e-05,0.0,0 STARLINK-5833,1 55773U 23028AJ  24139.90158669 -.00001851  00000-0 -14739-3 0  9999,2 55773  70.0017  88.0043 0002102 264.9190  95.1729 14.98328463 67704,6950.198,96.107,573.524,570.602,0.0
55773.0,STARLINK-5833,PAYLOAD,2024-05-19 04:02:50,14.98315072,0.0003145,69.999,87.3284,269.8677,90.2122,-0.00028281,-3.465e-05,0.0,0 STARLINK-5833,1 55773U 23028AJ  24140.16863878 -.00003465  00000-0 -28281-3 0  9994,2 55773  69.9990  87.3284 0003145 269.8677  90.2122 14.98315072 67741,6950.239,96.108,574.29,569.918,0.0
55773.0,STARLINK-5833,PAYLOAD,2024-05-19 05:38:58,14.98309957,0.0002701,70.0002,87.1622,266.9538,93.1312,-0.00026804,-3.288e-05,0.0,0 STARLINK-5833,1 55773U 23028AJ  24140.23540289 -.00003288  00000-0 -26804-3 0  9992,2 55773  70.0002  87.1622 0002701 266.9538  93.1312 14.98309957 67752,6950.255,96.108,573.997,570.243,0.0
55773.0,STARLINK-5833,PAYLOAD,2024-05-19 20:04:10,14.98312552,0.0003359,69.9986,85.646,272.5894,87.488,9.8254e-05,1.079e-05,0.0,0 STARLINK-5833,1 55773U 23028AJ  24140.83623510  .00001079  00000-0  98254-4 0  9990,2 55773  69.9986  85.6460 0003359 272.5894  87.4880 14.98312552 67842,6950.247,96.108,574.446,569.777,0.0
55773.0,STARLINK-5833,PAYLOAD,2024-05-20 04:04:49,14.98334171,0.0003178,69.9988,84.8034,273.5262,86.5534,0.00020321,2.333e-05,0.0,0 STARLINK-5833,1 55773U 23028AJ  24141.17002047  .00002333  00000-0  20321-3 0  9997,2 55773  69.9988  84.8034 0003178 273.5262  86.5534 14.98334171 67893,6950.18,96.107,574.254,569.836,0.0
55773.0,STARLINK-5833,PAYLOAD,2024-05-20 05:40:58,14.98329447,0.0002087,70.0015,84.6369,249.5775,110.516,0.00015951,1.811e-05,0.0,0 STARLINK-5833,1 55773U 23028AJ  24141.23678519  .00001811  00000-0  15951-3 0  9990,2 55773  70.0015  84.6369 0002087 249.5775 110.5160 14.98329447 67901,6950.195,96.107,573.51,570.609,0.0
55773.0,STARLINK-5833,PAYLOAD,2024-05-21 04:06:51,14.98319932,0.0002348,70.0011,82.2804,252.3692,107.721,0.00023666,2.731e-05,0.0,0 STARLINK-5833,1 55773U 23028AJ  24142.17142836  .00002731  00000-0  23666-3 0  9996,2 55773  70.0011  82.2804 0002348 252.3692 107.7210 14.98319932 68043,6950.224,96.108,573.721,570.457,0.0
55773.0,STARLINK-5833,PAYLOAD,2024-05-21 05:42:59,14.98323675,0.0002625,70.0003,82.1118,261.3285,98.7577,0.0002554,2.955e-05,0.0,0 STARLINK-5833,1 55773U 23028AJ  24142.23818604  .00002955  00000-0  25540-3 0  9997,2 55773  70.0003  82.1118 0002625 261.3285  98.7577 14.98323675 68052,6950.212,96.107,573.902,570.253,0.0
55773.0,STARLINK-5833,PAYLOAD,2024-05-21 20:08:11,14.98342508,0.0002645,70.0004,80.5978,261.277,98.809,-1.5376e-05,-2.76e-06,0.0,0 STARLINK-5833,1 55773U 23028AJ  24142.83902099 -.00000276  00000-0 -15376-4 0  9998,2 55773  70.0004  80.5978 0002645 261.2770  98.8090 14.98342508 68146,6950.154,96.106,573.858,570.181,0.0
55773.0,STARLINK-5833,PAYLOAD,2024-05-21 21:44:19,14.98342107,0.0002654,70.0004,80.4296,261.4863,98.5995,-2.0415e-05,-3.37e-06,0.0,0 STARLINK-5833,1 55773U 23028AJ  24142.90578081 -.00000337  00000-0 -20415-4 0  9994,2 55773  70.0004  80.4296 0002654 261.4863  98.5995 14.98342107 68150,6950.155,96.106,573.865,570.176,0.0
55773.0,STARLINK-5833,PAYLOAD,2024-05-22 05:44:59,14.98343944,0.0002625,70.0006,79.5881,261.0011,99.0851,4.4331e-06,-4e-07,0.0,0 STARLINK-5833,1 55773U 23028AJ  24143.23957614 -.00000040  00000-0  44331-5 0  9998,2 55773  70.0006  79.5881 0002625 261.0011  99.0851 14.98343944 68203,6950.15,96.106,573.839,570.19,0.0
55773.0,STARLINK-5833,PAYLOAD,2024-05-22 20:10:12,14.98333533,0.000254,70.0009,78.0731,264.1495,95.9375,-3.0235e-05,-4.54e-06,0.0,0 STARLINK-5833,1 55773U 23028AJ  24143.84042026 -.00000454  00000-0 -30235-4 0  9994,2 55773  70.0009  78.0731 0002540 264.1495  95.9375 14.98333533 68298,6950.182,96.107,573.812,570.282,0.0
55773.0,STARLINK-5833,PAYLOAD,2024-05-22 21:46:20,14.98333042,0.0002556,70.0009,77.9051,263.6939,96.3929,-3.7528e-05,-5.41e-06,0.0,0 STARLINK-5833,1 55773U 23028AJ  24143.90718051 -.00000541  00000-0 -37528-4 0  9998,2 55773  70.0009  77.9051 0002556 263.6939  96.3929 14.98333042 68302,6950.183,96.107,573.825,570.272,0.0
55773.0,STARLINK-5833,PAYLOAD,2024-05-23 05:47:00,14.98331756,0.0002586,70.0009,77.0638,262.9239,97.1626,-5.1241e-05,-7.04e-06,0.0,0 STARLINK-5833,1 55773U 23028AJ  24144.24098098 -.00000704  00000-0 -51241-4 0  9997,2 55773  70.0009  77.0638 0002586 262.9239  97.1626 14.98331756 68350,6950.187,96.107,573.85,570.255,0.0
